CCSDS_OMM_VERS = 2.0
CREATION_DATE  = 
ORIGINATOR     = 

OBJECT_NAME    = CYGNUS NG-23
OBJECT_ID      = 2025-208A
CENTER_NAME    = EARTH
REF_FRAME      = TEME
TIME_SYSTEM    = UTC
MEAN_ELEMENT_THEORY = SGP/SGP4

EPOCH          = 2026-01-09T05:01:51.963744
MEAN_MOTION    = 15.49190279
ECCENTRICITY   = .00076773
INCLINATION    = 51.6334
RA_OF_ASC_NODE = 6.4737
ARG_OF_PERICENTER = 357.8776
MEAN_ANOMALY   = 2.2179

EPHEMERIS_TYPE = 0
CLASSIFICATION_TYPE = U
NORAD_CAT_ID   = 65616
ELEMENT_SET_NO = 999
REV_AT_EPOCH   = 22
BSTAR          = .20045458E-3
MEAN_MOTION_DOT = .10689E-3
MEAN_MOTION_DDOT = 0

CCSDS_OMM_VERS = 2.0
CREATION_DATE  = 
ORIGINATOR     = 

OBJECT_NAME    = DRAGONFLY
OBJECT_ID      = 1998-067XH
CENTER_NAME    = EARTH
REF_FRAME      = TEME
TIME_SYSTEM    = UTC
MEAN_ELEMENT_THEORY = SGP/SGP4

EPOCH          = 2026-01-09T04:01:08.164704
MEAN_MOTION    = 15.85337671
ECCENTRICITY   = .00084113
INCLINATION    = 51.6223
RA_OF_ASC_NODE = 354.1315
ARG_OF_PERICENTER = 77.0299
MEAN_ANOMALY   = 283.1643

EPHEMERIS_TYPE = 0
CLASSIFICATION_TYPE = U
NORAD_CAT_ID   = 65729
ELEMENT_SET_NO = 999
REV_AT_EPOCH   = 1749
BSTAR          = .12603861E-2
MEAN_MOTION_DOT = .31897E-2
MEAN_MOTION_DDOT = 0

CCSDS_OMM_VERS = 2.0
CREATION_DATE  = 
ORIGINATOR     = 

OBJECT_NAME    = 1998-067XK
OBJECT_ID      = 1998-067XK
CENTER_NAME    = EARTH
REF_FRAME      = TEME
TIME_SYSTEM    = UTC
MEAN_ELEMENT_THEORY = SGP/SGP4

EPOCH          = 2026-01-09T04:34:14.989728
MEAN_MOTION    = 15.72364963
ECCENTRICITY   = .00050253
INCLINATION    = 51.6286
RA_OF_ASC_NODE = 357.3406
ARG_OF_PERICENTER = 50.5024
MEAN_ANOMALY   = 309.6418

EPHEMERIS_TYPE = 0
CLASSIFICATION_TYPE = U
NORAD_CAT_ID   = 65731
ELEMENT_SET_NO = 999
REV_AT_EPOCH   = 1745
BSTAR          = .88365326E-3
MEAN_MOTION_DOT = .121076E-2
MEAN_MOTION_DDOT = 0

CCSDS_OMM_VERS = 2.0
CREATION_DATE  = 
ORIGINATOR     = 

OBJECT_NAME    = RSP-03
OBJECT_ID      = 1998-067XL
CENTER_NAME    = EARTH
REF_FRAME      = TEME
TIME_SYSTEM    = UTC
MEAN_ELEMENT_THEORY = SGP/SGP4

EPOCH          = 2026-01-09T06:04:01.631424
MEAN_MOTION    = 15.77948005
ECCENTRICITY   = .00061368
INCLINATION    = 51.6258
RA_OF_ASC_NODE = 355.4813
ARG_OF_PERICENTER = 58.8424
MEAN_ANOMALY   = 301.3177

EPHEMERIS_TYPE = 0
CLASSIFICATION_TYPE = U
NORAD_CAT_ID   = 65732
ELEMENT_SET_NO = 999
REV_AT_EPOCH   = 1749
BSTAR          = .13670171E-2
MEAN_MOTION_DOT = .243012E-2
MEAN_MOTION_DDOT = 0

CCSDS_OMM_VERS = 2.0
CREATION_DATE  = 
ORIGINATOR     = 

OBJECT_NAME    = GHS-01
OBJECT_ID      = 1998-067XM
CENTER_NAME    = EARTH
REF_FRAME      = TEME
TIME_SYSTEM    = UTC
MEAN_ELEMENT_THEORY = SGP/SGP4

EPOCH          = 2026-01-07T08:09:50.150592
MEAN_MOTION    = 15.92234495
ECCENTRICITY   = .00091221
INCLINATION    = 51.6249
RA_OF_ASC_NODE = 2.1848
ARG_OF_PERICENTER = 72.4376
MEAN_ANOMALY   = 287.7626

EPHEMERIS_TYPE = 0
CLASSIFICATION_TYPE = U
NORAD_CAT_ID   = 65733
ELEMENT_SET_NO = 999
REV_AT_EPOCH   = 1723
BSTAR          = .1480688E-2
MEAN_MOTION_DOT = .508707E-2
MEAN_MOTION_DDOT = .11218926E-3

CCSDS_OMM_VERS = 2.0
CREATION_DATE  = 
ORIGINATOR     = 

OBJECT_NAME    = YOTSUBA-KULOVER
OBJECT_ID      = 1998-067XN
CENTER_NAME    = EARTH
REF_FRAME      = TEME
TIME_SYSTEM    = UTC
MEAN_ELEMENT_THEORY = SGP/SGP4

EPOCH          = 2026-01-09T05:33:47.414592
MEAN_MOTION    = 15.63982323
ECCENTRICITY   = .00039322
INCLINATION    = 51.6296
RA_OF_ASC_NODE = 1.3752
ARG_OF_PERICENTER = 77.1453
MEAN_ANOMALY   = 282.9980

EPHEMERIS_TYPE = 0
CLASSIFICATION_TYPE = U
NORAD_CAT_ID   = 65941
ELEMENT_SET_NO = 999
REV_AT_EPOCH   = 1415
BSTAR          = .1021793E-2
MEAN_MOTION_DOT = .99004E-3
MEAN_MOTION_DDOT = 0

CCSDS_OMM_VERS = 2.0
CREATION_DATE  = 
ORIGINATOR     = 

OBJECT_NAME    = BOTAN
OBJECT_ID      = 1998-067XP
CENTER_NAME    = EARTH
REF_FRAME      = TEME
TIME_SYSTEM    = UTC
MEAN_ELEMENT_THEORY = SGP/SGP4

EPOCH          = 2026-01-09T03:44:35.343168
MEAN_MOTION    = 15.70171491
ECCENTRICITY   = .00046937
INCLINATION    = 51.6269
RA_OF_ASC_NODE = 0.1105
ARG_OF_PERICENTER = 71.5501
MEAN_ANOMALY   = 288.6006

EPHEMERIS_TYPE = 0
CLASSIFICATION_TYPE = U
NORAD_CAT_ID   = 65942
ELEMENT_SET_NO = 999
REV_AT_EPOCH   = 1416
BSTAR          = .10935312E-2
MEAN_MOTION_DOT = .136977E-2
MEAN_MOTION_DDOT = 0

CCSDS_OMM_VERS = 2.0
CREATION_DATE  = 
ORIGINATOR     = 

OBJECT_NAME    = E-KAGAKU-1
OBJECT_ID      = 1998-067XQ
CENTER_NAME    = EARTH
REF_FRAME      = TEME
TIME_SYSTEM    = UTC
MEAN_ELEMENT_THEORY = SGP/SGP4

EPOCH          = 2026-01-09T05:33:37.488096
MEAN_MOTION    = 15.63985130
ECCENTRICITY   = .00024766
INCLINATION    = 51.6307
RA_OF_ASC_NODE = 1.3807
ARG_OF_PERICENTER = 73.8814
MEAN_ANOMALY   = 286.2453

EPHEMERIS_TYPE = 0
CLASSIFICATION_TYPE = U
NORAD_CAT_ID   = 65943
ELEMENT_SET_NO = 999
REV_AT_EPOCH   = 1415
BSTAR          = .99730698E-3
MEAN_MOTION_DOT = .96582E-3
MEAN_MOTION_DDOT = 0

CCSDS_OMM_VERS = 2.0
CREATION_DATE  = 
ORIGINATOR     = 

OBJECT_NAME    = HRC MONOBLOCK CAMERA
OBJECT_ID      = 1998-067XR
CENTER_NAME    = EARTH
REF_FRAME      = TEME
TIME_SYSTEM    = UTC
MEAN_ELEMENT_THEORY = SGP/SGP4

EPOCH          = 2026-01-09T06:47:09.650976
MEAN_MOTION    = 15.56289705
ECCENTRICITY   = .00012373
INCLINATION    = 51.6312
RA_OF_ASC_NODE = 3.9643
ARG_OF_PERICENTER = 337.1063
MEAN_ANOMALY   = 22.9873

EPHEMERIS_TYPE = 0
CLASSIFICATION_TYPE = U
NORAD_CAT_ID   = 66052
ELEMENT_SET_NO = 999
REV_AT_EPOCH   = 1312
BSTAR          = .58895701E-3
MEAN_MOTION_DOT = .41945E-3
MEAN_MOTION_DDOT = 0

CCSDS_OMM_VERS = 2.0
CREATION_DATE  = 
ORIGINATOR     = 

OBJECT_NAME    = HTV-X1
OBJECT_ID      = 2025-241A
CENTER_NAME    = EARTH
REF_FRAME      = TEME
TIME_SYSTEM    = UTC
MEAN_ELEMENT_THEORY = SGP/SGP4

EPOCH          = 2026-01-09T05:01:51.963744
MEAN_MOTION    = 15.49190279
ECCENTRICITY   = .00076773
INCLINATION    = 51.6334
RA_OF_ASC_NODE = 6.4737
ARG_OF_PERICENTER = 357.8776
MEAN_ANOMALY   = 2.2179

EPHEMERIS_TYPE = 0
CLASSIFICATION_TYPE = U
NORAD_CAT_ID   = 66174
ELEMENT_SET_NO = 999
REV_AT_EPOCH   = 51
BSTAR          = .20045458E-3
MEAN_MOTION_DOT = .10689E-3
MEAN_MOTION_DDOT = 0

CCSDS_OMM_VERS = 2.0
CREATION_DATE  = 
ORIGINATOR     = 

OBJECT_NAME    = SZ-21 MODULE
OBJECT_ID      = 2025-246C
CENTER_NAME    = EARTH
REF_FRAME      = TEME
TIME_SYSTEM    = UTC
MEAN_ELEMENT_THEORY = SGP/SGP4

EPOCH          = 2026-01-09T06:21:52.022016
MEAN_MOTION    = 15.64195742
ECCENTRICITY   = .00014209
INCLINATION    = 41.4746
RA_OF_ASC_NODE = 207.9332
ARG_OF_PERICENTER = 107.3362
MEAN_ANOMALY   = 252.7634

EPHEMERIS_TYPE = 0
CLASSIFICATION_TYPE = U
NORAD_CAT_ID   = 66515
ELEMENT_SET_NO = 999
REV_AT_EPOCH   = 875
BSTAR          = .32953403E-3
MEAN_MOTION_DOT = .32052E-3
MEAN_MOTION_DDOT = 0

CCSDS_OMM_VERS = 2.0
CREATION_DATE  = 
ORIGINATOR     = 

OBJECT_NAME    = SHENZHOU-22
OBJECT_ID      = 2025-272A
CENTER_NAME    = EARTH
REF_FRAME      = TEME
TIME_SYSTEM    = UTC
MEAN_ELEMENT_THEORY = SGP/SGP4

EPOCH          = 2026-01-09T05:55:59.849472
MEAN_MOTION    = 15.60342132
ECCENTRICITY   = .00113315
INCLINATION    = 41.4653
RA_OF_ASC_NODE = 209.5635
ARG_OF_PERICENTER = 249.7093
MEAN_ANOMALY   = 110.2528

EPHEMERIS_TYPE = 0
CLASSIFICATION_TYPE = U
NORAD_CAT_ID   = 66645
ELEMENT_SET_NO = 999
REV_AT_EPOCH   = 26764
BSTAR          = .29724756E-3
MEAN_MOTION_DOT = .2486E-3
MEAN_MOTION_DDOT = 0

